{
    "links": {
        "self": "http://www.neowsapp.com/rest/v1/neo/3433361?api_key=iIulBulltgU6a56xZRHN4H3l9WmuAYTsLGpBGhQ2"
    },
    "id": "3433361",
    "neo_reference_id": "3433361",
    "name": "(2008 UA7)",
    "designation": "2008 UA7",
    "nasa_jpl_url": "http://ssd.jpl.nasa.gov/sbdb.cgi?sstr=3433361",
    "absolute_magnitude_h": 24.9,
    "estimated_diameter": {
        "kilometers": {
            "estimated_diameter_min": 0.0278326768,
            "estimated_diameter_max": 0.0622357573
        },
        "meters": {
            "estimated_diameter_min": 27.8326768072,
            "estimated_diameter_max": 62.2357573367
        },
        "miles": {
            "estimated_diameter_min": 0.0172944182,
            "estimated_diameter_max": 0.0386714948
        },
        "feet": {
            "estimated_diameter_min": 91.3145593761,
            "estimated_diameter_max": 204.1855621004
        }
    },
    "is_potentially_hazardous_asteroid": false,
    "close_approach_data": [
        {
            "close_approach_date": "2008-10-16",
            "close_approach_date_full": "2008-Oct-16 07:52",
            "epoch_date_close_approach": 1224143520000,
            "relative_velocity": {
                "kilometers_per_second": "7.6408030939",
                "kilometers_per_hour": "27506.8911378927",
                "miles_per_hour": "17091.7124406534"
            },
            "miss_distance": {
                "astronomical": "0.0642747434",
                "lunar": "25.0028751826",
                "kilometers": "9615364.707436558",
                "miles": "5974710.5781901804"
            },
            "orbiting_body": "Earth"
        },
        {
            "close_approach_date": "2086-11-06",
            "close_approach_date_full": "2086-Nov-06 03:46",
            "epoch_date_close_approach": 3687392760000,
            "relative_velocity": {
                "kilometers_per_second": "14.7477918525",
                "kilometers_per_hour": "53092.0506691768",
                "miles_per_hour": "32989.3355949671"
            },
            "miss_distance": {
                "astronomical": "0.3096125104",
                "lunar": "120.4392665456",
                "kilometers": "46317372.081192848",
                "miles": "28780280.4519153824"
            },
            "orbiting_body": "Earth"
        }
    ],
    "orbital_data": {
        "orbit_id": "9",
        "orbit_determination_date": "2017-04-06 09:02:27",
        "first_observation_date": "2008-10-26",
        "last_observation_date": "2008-11-06",
        "data_arc_in_days": 11,
        "observations_used": 25,
        "orbit_uncertainty": "9",
        "minimum_orbit_intersection": ".0639683",
        "jupiter_tisserand_invariant": "4.245",
        "epoch_osculation": "2454769.5",
        "eccentricity": ".3602634890569196",
        "semi_major_axis": "1.615423261970018",
        "inclination": "10.07931576491707",
        "ascending_node_longitude": "213.7873677604094",
        "orbital_period": "749.9424296513159",
        "perihelion_distance": "1.033445241308989",
        "perihelion_argument": "148.5505148060473",
        "aphelion_distance": "2.197401282631047",
        "perihelion_time": "2454736.929988345616",
        "mean_anomaly": "15.63480572906089",
        "mean_motion": ".480036847851616",
        "equinox": "J2000",
        "orbit_class": {
            "orbit_class_type": "AMO",
            "orbit_class_description": "Near-Earth asteroid orbits similar to that of 1221 Amor",
            "orbit_class_range": "1.017 AU < q (perihelion) < 1.3 AU"
        }
    },
    "is_sentry_object": false
}